{
  "type": "FeatureCollection",
  "features": [
    {
      "type": "Feature",
      "properties": {
        "norad_id": 66509,
        "name": "STARLINK-35598",
        "group": "last-30-days",
        "lat": -17.206999424222804,
        "lon": -15.072634739240533,
        "alt_km": 416.4633528388413,
        "timestamp": "2025-12-09T05:43:19.509119+00:00",
        "meta_object_name": "STARLINK-35598",
        "meta_object_id": "2025-263AA",
        "meta_epoch": "2025-12-08T20:00:01.999008",
        "meta_mean_motion": 15.5056082,
        "meta_eccentricity": 0.00014,
        "meta_inclination": 43.0001,
        "meta_ra_of_asc_node": 147.8867,
        "meta_arg_of_pericenter": 273.8141,
        "meta_mean_anomaly": 188.0507,
        "meta_ephemeris_type": 0,
        "meta_classification_type": "U",
        "meta_norad_cat_id": 66509,
        "meta_element_set_no": 999,
        "meta_rev_at_epoch": 500,
        "meta_bstar": 0.00011049,
        "meta_mean_motion_dot": 6.141e-05,
        "meta_mean_motion_ddot": 0,
        "tle_line1": "1 66509U 25263AA  25342.83335647  .00006141  00000+0  11049-3 0  9998",
        "tle_line2": "2 66509  43.0001 147.8867 0001400 273.8141 188.0507 15.50560820  5004"
      },
      "geometry": {
        "type": "Point",
        "coordinates": [
          -15.072634739240533,
          -17.206999424222804
        ]
      }
    },
    {
      "type": "Feature",
      "properties": {
        "norad_id": 66510,
        "name": "STARLINK-35600",
        "group": "last-30-days",
        "lat": -13.466388813966372,
        "lon": -19.577789645027575,
        "alt_km": 416.18782286760234,
        "timestamp": "2025-12-09T05:43:19.509131+00:00",
        "meta_object_name": "STARLINK-35600",
        "meta_object_id": "2025-263AB",
        "meta_epoch": "2025-12-08T20:00:01.999008",
        "meta_mean_motion": 15.50562471,
        "meta_eccentricity": 0.0001382,
        "meta_inclination": 43.0002,
        "meta_ra_of_asc_node": 147.9017,
        "meta_arg_of_pericenter": 273.9982,
        "meta_mean_anomaly": 182.117,
        "meta_ephemeris_type": 0,
        "meta_classification_type": "U",
        "meta_norad_cat_id": 66510,
        "meta_element_set_no": 999,
        "meta_rev_at_epoch": 500,
        "meta_bstar": 0.00014645,
        "meta_mean_motion_dot": 8.254e-05,
        "meta_mean_motion_ddot": 0,
        "tle_line1": "1 66510U 25263AB  25342.83335647  .00008254  00000+0  14645-3 0  9992",
        "tle_line2": "2 66510  43.0002 147.9017 0001382 273.9982 182.1170 15.50562471  5003"
      },
      "geometry": {
        "type": "Point",
        "coordinates": [
          -19.577789645027575,
          -13.466388813966372
        ]
      }
    },
    {
      "type": "Feature",
      "properties": {
        "norad_id": 66511,
        "name": "STARLINK-35444",
        "group": "last-30-days",
        "lat": -15.958940566368529,
        "lon": -16.606170484401574,
        "alt_km": 416.620642835077,
        "timestamp": "2025-12-09T05:43:19.509144+00:00",
        "meta_object_name": "STARLINK-35444",
        "meta_object_id": "2025-263AC",
        "meta_epoch": "2025-12-08T20:00:01.999008",
        "meta_mean_motion": 15.50603475,
        "meta_eccentricity": 0.0001599,
        "meta_inclination": 43.0004,
        "meta_ra_of_asc_node": 147.8924,
        "meta_arg_of_pericenter": 291.2584,
        "meta_mean_anomaly": 168.635,
        "meta_ephemeris_type": 0,
        "meta_classification_type": "U",
        "meta_norad_cat_id": 66511,
        "meta_element_set_no": 999,
        "meta_rev_at_epoch": 500,
        "meta_bstar": -0.00049572,
        "meta_mean_motion_dot": -0.0002934,
        "meta_mean_motion_ddot": 0,
        "tle_line1": "1 66511U 25263AC  25342.83335647 -.00029340  00000+0 -49572-3 0  9991",
        "tle_line2": "2 66511  43.0004 147.8924 0001599 291.2584 168.6350 15.50603475  5002"
      },
      "geometry": {
        "type": "Point",
        "coordinates": [
          -16.606170484401574,
          -15.958940566368529
        ]
      }
    },
    {
      "type": "Feature",
      "properties": {
        "norad_id": 66512,
        "name": "STARLINK-35366",
        "group": "last-30-days",
        "lat": -18.436423580000678,
        "lon": -13.52620396734771,
        "alt_km": 416.82085398776144,
        "timestamp": "2025-12-09T05:43:19.509157+00:00",
        "meta_object_name": "STARLINK-35366",
        "meta_object_id": "2025-263AD",
        "meta_epoch": "2025-12-08T20:00:01.999008",
        "meta_mean_motion": 15.50634841,
        "meta_eccentricity": 0.0001594,
        "meta_inclination": 43.0004,
        "meta_ra_of_asc_node": 147.8824,
        "meta_arg_of_pericenter": 291.275,
        "meta_mean_anomaly": 172.4623,
        "meta_ephemeris_type": 0,
        "meta_classification_type": "U",
        "meta_norad_cat_id": 66512,
        "meta_element_set_no": 999,
        "meta_rev_at_epoch": 500,
        "meta_bstar": -0.0014762,
        "meta_mean_motion_dot": -0.0008617,
        "meta_mean_motion_ddot": 0,
        "tle_line1": "1 66512U 25263AD  25342.83335647 -.00086170  00000+0 -14762-2 0  9998",
        "tle_line2": "2 66512  43.0004 147.8824 0001594 291.2750 172.4623 15.50634841  5009"
      },
      "geometry": {
        "type": "Point",
        "coordinates": [
          -13.52620396734771,
          -18.436423580000678
        ]
      }
    },
    {
      "type": "Feature",
      "properties": {
        "norad_id": 66513,
        "name": "STARLINK-35692",
        "group": "last-30-days",
        "lat": -14.725134702367665,
        "lon": -18.09132793184563,
        "alt_km": 416.30309030220997,
        "timestamp": "2025-12-09T05:43:19.509167+00:00",
        "meta_object_name": "STARLINK-35692",
        "meta_object_id": "2025-263AE",
        "meta_epoch": "2025-12-08T20:00:01.999008",
        "meta_mean_motion": 15.50572345,
        "meta_eccentricity": 0.0001391,
        "meta_inclination": 43.0002,
        "meta_ra_of_asc_node": 147.8969,
        "meta_arg_of_pericenter": 273.8574,
        "meta_mean_anomaly": 184.1751,
        "meta_ephemeris_type": 0,
        "meta_classification_type": "U",
        "meta_norad_cat_id": 66513,
        "meta_element_set_no": 999,
        "meta_rev_at_epoch": 500,
        "meta_bstar": -0.00024344,
        "meta_mean_motion_dot": -0.00014593,
        "meta_mean_motion_ddot": 0,
        "tle_line1": "1 66513U 25263AE  25342.83335647 -.00014593  00000+0 -24344-3 0  9997",
        "tle_line2": "2 66513  43.0002 147.8969 0001391 273.8574 184.1751 15.50572345  5005"
      },
      "geometry": {
        "type": "Point",
        "coordinates": [
          -18.09132793184563,
          -14.725134702367665
        ]
      }
    },
    {
      "type": "Feature",
      "properties": {
        "norad_id": 66514,
        "name": "SENTINEL-6B",
        "group": "last-30-days",
        "lat": 34.06957379857413,
        "lon": -27.7824597034038,
        "alt_km": 1331.625608292149,
        "timestamp": "2025-12-09T05:43:19.509178+00:00",
        "meta_object_name": "SENTINEL-6B",
        "meta_object_id": "2025-264A",
        "meta_epoch": "2025-12-08T19:38:09.449952",
        "meta_mean_motion": 12.8403201,
        "meta_eccentricity": 0.0021041,
        "meta_inclination": 66.0385,
        "meta_ra_of_asc_node": 170.5961,
        "meta_arg_of_pericenter": 268.265,
        "meta_mean_anomaly": 91.5957,
        "meta_ephemeris_type": 0,
        "meta_classification_type": "U",
        "meta_norad_cat_id": 66514,
        "meta_element_set_no": 999,
        "meta_rev_at_epoch": 278,
        "meta_bstar": 0.00012295,
        "meta_mean_motion_dot": -3.2e-07,
        "meta_mean_motion_ddot": 0,
        "tle_line1": "1 66514U 25264A   25342.81816493 -.00000032  00000+0  12295-3 0  9994",
        "tle_line2": "2 66514  66.0385 170.5961 0021041 268.2650  91.5957 12.84032010  2782"
      },
      "geometry": {
        "type": "Point",
        "coordinates": [
          -27.7824597034038,
          34.06957379857413
        ]
      }
    },
    {
      "type": "Feature",
      "properties": {
        "norad_id": 66516,
        "name": "STARLINK-35924",
        "group": "last-30-days",
        "lat": 3.490839258995666,
        "lon": 78.25989631174396,
        "alt_km": 405.56264875937904,
        "timestamp": "2025-12-09T05:43:19.509188+00:00",
        "meta_object_name": "STARLINK-35924",
        "meta_object_id": "2025-265A",
        "meta_epoch": "2025-12-08T20:00:01.999008",
        "meta_mean_motion": 15.55364131,
        "meta_eccentricity": 0.0001341,
        "meta_inclination": 43.0006,
        "meta_ra_of_asc_node": 76.8901,
        "meta_arg_of_pericenter": 270.0072,
        "meta_mean_anomaly": 345.7128,
        "meta_ephemeris_type": 0,
        "meta_classification_type": "U",
        "meta_norad_cat_id": 66516,
        "meta_element_set_no": 999,
        "meta_rev_at_epoch": 434,
        "meta_bstar": -0.033164,
        "meta_mean_motion_dot": -0.02062959,
        "meta_mean_motion_ddot": 0,
        "tle_line1": "1 66516U 25265A   25342.83335647 -.02062959  00000+0 -33164-1 0  9991",
        "tle_line2": "2 66516  43.0006  76.8901 0001341 270.0072 345.7128 15.55364131  4342"
      },
      "geometry": {
        "type": "Point",
        "coordinates": [
          78.25989631174396,
          3.490839258995666
        ]
      }
    }
  ]
}